OBJECT_NAME,OBJECT_ID,EPOCH,MEAN_MOTION,ECCENTRICITY,INCLINATION,RA_OF_ASC_NODE,ARG_OF_PERICENTER,MEAN_ANOMALY,EPHEMERIS_TYPE,CLASSIFICATION_TYPE,NORAD_CAT_ID,ELEMENT_SET_NO,REV_AT_EPOCH,BSTAR,MEAN_MOTION_DOT,MEAN_MOTION_DDOT
FENGYUN 1C DEB,1999-025CGN,2022-06-30T13:22:12.269280,14.56232425,.0101909,98.6018,305.5952,41.3414,319.5439,0,U,31787,999,47305,.55751E-3,.2592E-4,0
FENGYUN 1C DEB,1999-025CGP,2022-06-30T17:57:35.157312,13.32872575,.050455,102.5656,9.8381,309.1694,111.6731,0,U,31788,999,73737,.11093E-2,.1044E-4,0
GENESIS 2,2007-028A,2022-06-30T21:27:30.154464,15.19678618,.0048999,64.4968,70.1708,313.9711,45.7375,0,U,31789,999,82794,.83627E-4,.1629E-4,0
SL-24 DEB,2007-028C,2022-06-30T21:17:37.749408,13.25259677,.0831875,64.5264,255.3699,26.3921,337.7094,0,U,31791,999,72612,.14757E-4,-.62E-6,0
COSMOS 2428,2007-029A,2022-07-01T03:45:56.909088,14.12572408,.0005846,70.9487,151.0445,7.2837,352.8368,0,U,31792,999,77386,.14455E-3,.22E-5,0
SL-16 R/B,2007-029B,2022-06-30T21:27:59.954688,14.14473706,.0002361,70.9751,124.6262,260.8876,155.6108,0,U,31793,999,77476,.15233E-3,.244E-5,0
SL-16 DEB,2007-029C,2022-06-30T20:44:20.233248,13.71172102,.0206839,71.0419,239.3285,205.4456,267.0860,0,U,31794,999,75090,.53288E-4,.13E-6,0
SL-16 DEB,2007-029D,2022-07-01T04:32:32.757792,13.68007607,.0224901,70.9477,243.3951,325.9663,100.2247,0,U,31795,999,74927,.12628E-3,.85E-6,0
SL-16 DEB,2007-029E,2022-06-30T18:29:18.476736,13.68331794,.0217187,71.0430,290.9843,262.4604,221.7448,0,U,31796,999,74939,.85897E-5,-.35E-6,0
SL-16 DEB,2007-029F,2022-06-30T17:27:10.232928,13.65862432,.0227025,70.9431,278.2518,21.0444,51.8194,0,U,31799,999,74770,.28069E-4,-.15E-6,0
ZHONGXING-6B,2007-031A,2022-07-01T03:38:25.932192,1.00272396,.0003612,0.0106,13.6590,85.1018,350.5297,0,U,31800,999,5496,0,-.353E-5,0
FENGYUN 1C DEB,1999-025CGQ,2022-06-30T11:45:49.775616,14.85974589,.0168994,98.1698,270.7756,38.1760,323.1283,0,U,31802,999,80901,.14267E-3,.1543E-4,0
FENGYUN 1C DEB,1999-025CGT,2022-06-30T00:15:42.880608,13.78087588,.0544679,98.4336,270.0021,60.7249,304.7219,0,U,31805,999,44851,.33189E-3,.983E-5,0
FENGYUN 1C DEB,1999-025CGV,2022-06-28T07:43:30.897696,14.41177388,.0123315,99.1298,206.6410,317.0149,42.1453,0,U,31807,999,47052,.20774E-3,.678E-5,0
FENGYUN 1C DEB,1999-025CGW,2022-06-28T01:29:25.432224,14.10522598,.0088859,99.2276,281.4819,164.6956,195.6932,0,U,31808,999,39574,.16836E-2,.3066E-4,0
FENGYUN 1C DEB,1999-025CGX,2022-06-30T00:27:54.819936,14.70154415,.0024835,98.7996,96.8012,75.9795,284.4167,0,U,31809,999,47723,.71819E-3,.4286E-4,0
FENGYUN 1C DEB,1999-025CGY,2022-06-29T21:18:54.919296,14.35245339,.0243864,98.3772,215.2758,341.9258,17.3369,0,U,31810,999,78928,.18127E-3,.673E-5,0
FENGYUN 1C DEB,1999-025CHA,2022-06-27T09:44:08.712096,14.00939012,.0071815,98.8882,243.6875,139.2526,221.4042,0,U,31812,999,50918,.35214E-3,.496E-5,0
FENGYUN 1C DEB,1999-025CHB,2022-06-29T23:56:25.751328,14.42092677,.0154337,99.4197,101.3047,78.8485,283.0009,0,U,31813,999,79026,.18293E-3,.635E-5,0
FENGYUN 1C DEB,1999-025CHC,2022-06-30T19:53:51.457920,13.64601400,.0233082,99.7120,222.1961,198.3139,160.9505,0,U,31814,999,44591,.34779E-3,.291E-5,0
FENGYUN 1C DEB,1999-025CHD,2022-06-30T19:27:22.235328,14.09861272,.0059039,98.7036,189.5909,354.3435,5.7063,0,U,31815,999,77769,.54691E-4,.55E-6,0
FENGYUN 1C DEB,1999-025CHE,2022-06-30T20:44:52.857024,13.88614784,.01283,98.8922,326.5442,354.5583,159.6886,0,U,31816,999,76163,.31065E-3,.357E-5,0
FENGYUN 1C DEB,1999-025CHF,2022-06-28T11:55:14.874816,14.43124776,.0087955,98.8518,88.2540,292.9757,66.2171,0,U,31817,999,53072,.32301E-3,.1085E-4,0
FENGYUN 1C DEB,1999-025CHH,2022-06-30T11:54:16.945344,14.26423577,.0093714,98.4504,196.8551,70.4868,290.6406,0,U,31819,999,78692,.12752E-3,.28E-5,0
FENGYUN 1C DEB,1999-025CHJ,2022-06-30T21:35:38.517504,14.56088588,.0251486,98.9856,215.7187,326.1043,32.4295,0,U,31820,999,79735,.17419E-3,.1106E-4,0
FENGYUN 1C DEB,1999-025CHK,2022-06-30T16:58:00.816096,13.86311151,.0405012,98.1700,164.7124,48.2484,315.2564,0,U,31821,999,75902,.21141E-2,.4638E-4,0
FENGYUN 1C DEB,1999-025CHM,2022-06-30T16:51:05.132736,14.39764493,.0052068,99.5212,87.3867,343.9968,15.9570,0,U,31823,999,78439,.3402E-3,.103E-4,0
FENGYUN 1C DEB,1999-025CHP,2022-06-30T20:42:23.270976,14.16629275,.0177067,98.6153,203.2754,18.3484,342.3971,0,U,31825,999,77806,.16089E-3,.331E-5,0
FENGYUN 1C DEB,1999-025CHQ,2022-06-29T13:03:07.224768,14.15454442,.0130036,98.6019,195.7582,221.1162,297.7884,0,U,31826,999,77935,.1791E-3,.337E-5,0
FENGYUN 1C DEB,1999-025CHR,2022-06-23T14:48:05.580864,13.92125505,.0131003,97.6668,310.6340,181.3874,178.6945,0,U,31827,999,43866,.14311E-2,.1932E-4,0
