FENGYUN 1C DEB          
1 31787U 99025CGN 22181.55708645  .00002592  00000+0  55751-3 0  9998
2 31787  98.6018 305.5952 0101909  41.3414 319.5439 14.56232425473053
FENGYUN 1C DEB          
1 31788U 99025CGP 22181.74832358  .00001044  00000+0  11093-2 0  9990
2 31788 102.5656   9.8381 0504550 309.1694 111.6731 13.32872575737374
GENESIS 2               
1 31789U 07028A   22181.89409901  .00001629  00000+0  83627-4 0  9996
2 31789  64.4968  70.1708 0048999 313.9711  45.7375 15.19678618827947
SL-24 DEB               
1 31791U 07028C   22181.88724247 -.00000062  00000+0  14757-4 0  9990
2 31791  64.5264 255.3699 0831875  26.3921 337.7094 13.25259677726122
COSMOS 2428             
1 31792U 07029A   22182.15690867  .00000220  00000+0  14455-3 0  9992
2 31792  70.9487 151.0445 0005846   7.2837 352.8368 14.12572408773869
SL-16 R/B               
1 31793U 07029B   22181.89444392  .00000244  00000+0  15233-3 0  9994
2 31793  70.9751 124.6262 0002361 260.8876 155.6108 14.14473706774760
SL-16 DEB               
1 31794U 07029C   22181.86412307  .00000013  00000+0  53288-4 0  9990
2 31794  71.0419 239.3285 0206839 205.4456 267.0860 13.71172102750909
SL-16 DEB               
1 31795U 07029D   22182.18926803  .00000085  00000+0  12628-3 0  9999
2 31795  70.9477 243.3951 0224901 325.9663 100.2247 13.68007607749273
SL-16 DEB               
1 31796U 07029E   22181.77035274 -.00000035  00000+0  85897-5 0  9993
2 31796  71.0430 290.9843 0217187 262.4604 221.7448 13.68331794749393
SL-16 DEB               
1 31799U 07029F   22181.72720177 -.00000015  00000+0  28069-4 0  9999
2 31799  70.9431 278.2518 0227025  21.0444  51.8194 13.65862432747704
ZHONGXING-6B            
1 31800U 07031A   22182.15168903 -.00000353  00000+0  00000+0 0  9991
2 31800   0.0106  13.6590 0003612  85.1018 350.5297  1.00272396 54965
FENGYUN 1C DEB          
1 31802U 99025CGQ 22181.49015944  .00001543  00000+0  14267-3 0  9994
2 31802  98.1698 270.7756 0168994  38.1760 323.1283 14.85974589809013
FENGYUN 1C DEB          
1 31805U 99025CGT 22181.01091297  .00000983  00000+0  33189-3 0  9991
2 31805  98.4336 270.0021 0544679  60.7249 304.7219 13.78087588448510
FENGYUN 1C DEB          
1 31807U 99025CGV 22179.32188539  .00000678  00000+0  20774-3 0  9997
2 31807  99.1298 206.6410 0123315 317.0149  42.1453 14.41177388470529
FENGYUN 1C DEB          
1 31808U 99025CGW 22179.06209991  .00003066  00000+0  16836-2 0  9992
2 31808  99.2276 281.4819 0088859 164.6956 195.6932 14.10522598395745
FENGYUN 1C DEB          
1 31809U 99025CGX 22181.01938449  .00004286  00000+0  71819-3 0  9996
2 31809  98.7996  96.8012 0024835  75.9795 284.4167 14.70154415477238
FENGYUN 1C DEB          
1 31810U 99025CGY 22180.88813564  .00000673  00000+0  18127-3 0  9991
2 31810  98.3772 215.2758 0243864 341.9258  17.3369 14.35245339789282
FENGYUN 1C DEB          
1 31812U 99025CHA 22178.40565639  .00000496  00000+0  35214-3 0  9994
2 31812  98.8882 243.6875 0071815 139.2526 221.4042 14.00939012509182
FENGYUN 1C DEB          
1 31813U 99025CHB 22180.99752027  .00000635  00000+0  18293-3 0  9994
2 31813  99.4197 101.3047 0154337  78.8485 283.0009 14.42092677790264
FENGYUN 1C DEB          
1 31814U 99025CHC 22181.82906780  .00000291  00000+0  34779-3 0  9990
2 31814  99.7120 222.1961 0233082 198.3139 160.9505 13.64601400445916
FENGYUN 1C DEB          
1 31815U 99025CHD 22181.81067402  .00000055  00000+0  54691-4 0  9993
2 31815  98.7036 189.5909 0059039 354.3435   5.7063 14.09861272777694
FENGYUN 1C DEB          
1 31816U 99025CHE 22181.86450066  .00000357  00000+0  31065-3 0  9995
2 31816  98.8922 326.5442 0128300 354.5583 159.6886 13.88614784761638
FENGYUN 1C DEB          
1 31817U 99025CHF 22179.49669994  .00001085  00000+0  32301-3 0  9997
2 31817  98.8518  88.2540 0087955 292.9757  66.2171 14.43124776530722
FENGYUN 1C DEB          
1 31819U 99025CHH 22181.49602946  .00000280  00000+0  12752-3 0  9990
2 31819  98.4504 196.8551 0093714  70.4868 290.6406 14.26423577786926
FENGYUN 1C DEB          
1 31820U 99025CHJ 22181.89975136  .00001106  00000+0  17419-3 0  9993
2 31820  98.9856 215.7187 0251486 326.1043  32.4295 14.56088588797356
FENGYUN 1C DEB          
1 31821U 99025CHK 22181.70695389  .00004638  00000+0  21141-2 0  9992
2 31821  98.1700 164.7124 0405012  48.2484 315.2564 13.86311151759028
FENGYUN 1C DEB          
1 31823U 99025CHM 22181.70214274  .00001030  00000+0  34020-3 0  9998
2 31823  99.5212  87.3867 0052068 343.9968  15.9570 14.39764493784397
FENGYUN 1C DEB          
1 31825U 99025CHP 22181.86276934  .00000331  00000+0  16089-3 0  9996
2 31825  98.6153 203.2754 0177067  18.3484 342.3971 14.16629275778062
FENGYUN 1C DEB          
1 31826U 99025CHQ 22180.54383362  .00000337  00000+0  17910-3 0  9995
2 31826  98.6019 195.7582 0130036 221.1162 297.7884 14.15454442779350
FENGYUN 1C DEB          
1 31827U 99025CHR 22174.61673126  .00001932  00000+0  14311-2 0  9990
2 31827  97.6668 310.6340 0131003 181.3874 178.6945 13.92125505438662
